1 44258U 19029Z   20196.91667824  .01238915  00000-0  24069-1 0  9996
2 44258  52.9977  76.5703 0001401 112.5009 325.1403 15.44189182 63365
1 44258U 19029Z   20197.25001157  .00866641  00000-0  16708-1 0  9998
2 44258  52.9971  74.9844 0001316 114.5397  17.6603 15.44946332 63413
1 44258U 19029Z   20197.58334491 +.00866966 +00000-0 +16409-1 0  9992
2 44258 052.9950 073.3954 0001198 101.5117 086.0163 15.45487587001774
1 44258U 19029Z   20197.66667824  .00868125  00000-0  16354-1 0  9998
2 44258  52.9955  72.9971 0001274  98.5286 192.9331 15.45622438  1781
1 44258U 19029Z   20197.91667824 +.01191450 +00000-0 +21966-1 0  9992
2 44258 052.9972 071.8010 0001206 116.2458 127.3510 15.45848002001773
1 44258U 19029Z   20198.25001157  .01255016  00000-0  22631-1 0  9990
2 44258  52.9960  70.2110 0001302  98.2833 201.9744 15.46345852 63577
1 44258U 19029Z   20198.41667824  .00867820  00000-0  15680-1 0  9994
2 44258  52.9959  69.4156 0001203 103.0967  45.5969 15.46842891 63596
1 44258U 19029Z   20198.58334491 +.01057982 +00000-0 +18952-1 0  9999
2 44258 052.9993 068.6175 0001243 086.4566 271.0125 15.47005985001777
1 44258U 19029Z   20198.91667824 +.00897100 +00000-0 +15725-1 0  9993
2 44258 052.9967 067.0202 0001407 118.3562 296.9977 15.47642269001789
1 44258U 19029Z   20199.58334491  .01266113  00000-0  21169-1 0  9992
2 44258  52.9992  63.8277 0001321 100.9207  72.3735 15.48513376 63773
1 44258U 19029Z   20199.91667824  .01185259  00000-0  19538-1 0  9996
2 44258  52.9992  62.2268 0001291 121.2934 111.8561 15.49108387 63831
1 44258U 19029Z   20200.25001157  .01048963  00000-0  16848-1 0  9998
2 44258  52.9972  60.6288 0001094 100.0640 193.5847 15.49737364 63885
1 44258U 19029Z   20200.58334491  .01079683  00000-0  17242-1 0  9996
2 44258  52.9995  59.0271 0001231  83.3846 271.4750 15.50256122 63933
1 44258U 19029Z   20200.91668981  .01021178  00000-0  15819-1 0  9991
2 44258  52.9981  57.4225 0001412 114.6090 302.1443 15.50841533 63981
1 44258U 19029Z   20201.25001157  .00884570  00000-0  13581-1 0  9991
2 44258  52.9972  55.8206 0001256 106.0152  13.1460 15.51457542 64031
1 44258U 19029Z   20201.58334491 +.01177630 +00000-0 +17645-1 0  9995
2 44258 052.9975 054.2136 0001181 097.0696 085.3420 15.51833163001774
1 44258U 19029Z   20201.91667824 +.00872927 +00000-0 +12902-1 0  9992
2 44258 052.9945 052.6088 0001215 103.5544 142.5792 15.52554158001775
1 44258U 19029Z   20202.25002315  .00876147  00000-0  12695-1 0  9995
2 44258  52.9972  51.0001 0001291 106.5195 204.1531 15.53099065 64195
1 44258U 19029Z   20202.50001157  .00873512  00000-0  12474-1 0  9994
2 44258  52.9972  49.7920 0001249 106.1735 163.2183 15.53509563 64230
1 44258U 19029Z   20202.58334491 +.01071229 +00000-0 +14998-1 0  9991
2 44258 052.9985 049.3892 0001352 090.9055 284.8818 15.53542822001778
1 44258U 19029Z   20202.66667824  .00874642  00000-0  12366-1 0  9995
2 44258  52.9987  48.9889 0001196 100.1625  21.9577 15.53782902 64253
1 44258U 19029Z   20202.83777693 +.00388818 +00000-0 +58625-2 0  9994
2 44258 052.9976 048.1361 0002100 130.4483 229.6709 15.52883127063356
1 44258U 19029Z   20203.50002315 +.00887059 +00000-0 +11746-1 0  9994
2 44258 052.9977 044.9561 0001251 108.7209 359.5670 15.55150501001812
1 44258U 19029Z   20203.91668981 +.01286779 +00000-0 +16683-1 0  9994
2 44258 052.9991 042.9361 0001326 111.6659 171.3364 15.55600072001777
1 44258U 19029Z   20204.00001157  .00908137  00000-0  11825-1 0  9992
2 44258  52.9989  42.5336 0001323 115.0339 274.8308 15.55954593 64464
1 44258U 19029Z   20204.58334491  .01241638  00000-0  15504-1 0  9990
2 44258  52.9963  39.7024 0001278 105.7108 314.7044 15.56718637 64556
1 44258U 19029Z   20204.91667824  .01258908  00000-0  15392-1 0  9999
2 44258  52.9978  38.0842 0001337 117.3822  12.7773 15.57250969 64600
1 44258U 19029Z   20205.25001157  .00908415  00000-0  10795-1 0  9994
2 44258  52.9957  36.4646 0001191 101.3550  99.0738 15.58018489 64654
1 44258U 19029Z   20205.58334491 +.00891064 +00000-0 +10390-1 0  9992
2 44258 052.9955 034.8423 0001203 098.7152 172.7591 15.58575751001824
1 44258U 19029Z   20205.91667824  .00890617  00000-0  10173-1 0  9990
2 44258  52.9976  33.2200 0001363 112.6146 230.5681 15.59126132 64760
1 44258U 19029Z   20206.58335648 +.00939336 +00000-0 +10247-1 0  9994
2 44258 052.9986 029.9703 0001205 095.8952 032.7675 15.60202099001780
1 44258U 19029Z   20206.91667824  .01032688  00000-0  11130-1 0  9992
2 44258  52.9996  28.3424 0001382 115.8830  86.4324 15.60695826 64913
1 44258U 19029Z   20207.25001157  .00892228  00000-0  93721-2 0  9991
2 44258  52.9996  26.7132 0001243 108.4778 168.1532 15.61326550 64977
1 44258U 19029Z   20207.91667824 +.00894834 +00000-0 +90066-2 0  9997
2 44258 052.9990 023.4548 0001352 117.3291 309.9948 15.62428361001775
1 44258U 19029Z   20208.25001157  .00893068  00000-0  87997-2 0  9993
2 44258  52.9978  21.8234 0001158 106.3739  37.2904 15.62980710 65127
1 44258U 19029Z   20208.58335648 +.00913928 +00000-0 +87973-2 0  9996
2 44258 052.9985 020.1900 0001155 094.5912 126.1476 15.63522903001786
1 44258U 19029Z   20208.91667824 +.01246552 +00000-0 +11853-1 0  9993
2 44258 052.9989 018.5536 0001210 103.3983 195.0482 15.63873034001770
1 44258U 19029Z   20209.25001157  .00893286  00000-0  82491-2 0  9990
2 44258  52.9990  16.9189 0001284 103.0802 273.5852 15.64638007 65285
1 44258U 19029Z   20209.58334491 +.00894329 +00000-0 +80796-2 0  9991
2 44258 052.9990 015.2783 0001212 106.3299 349.3312 15.65189985001835
1 44258U 19029Z   20209.91668981 +.00895511 +00000-0 +79135-2 0  9991
2 44258 052.9987 013.6415 0001249 117.7629 057.6214 15.65743673001771
1 44258U 19029Z   20210.25001157  .00895636  00000-0  77416-2 0  9994
2 44258  52.9978  12.0028 0001163 102.3170 153.3278 15.66297186 65442
1 44258U 19029Z   20210.58334491 +.00949397 +00000-0 +79890-2 0  9992
2 44258 052.9969 010.3587 0001166 100.6348 236.0136 15.66824314001771
1 44258U 19029Z   20210.91667824 +.01204166 +00000-0 +98897-2 0  9995
2 44258 052.9983 008.7159 0001416 105.0579 313.3191 15.67234125001772
1 44258U 19029Z   20211.25001157  .00896075  00000-0  72435-2 0  9999
2 44258  52.9982   7.0723 0001135 102.0482  38.5646 15.67960083 65598
1 44258U 19029Z   20211.91667824 +.01287420 +00000-0 +98287-2 0  9993
2 44258 052.9978 003.7792 0001170 095.8179 211.5542 15.68850583001775
1 44258U 19029Z   20212.25001157  .00896304  00000-0  67687-2 0  9998
2 44258  52.9978   2.1308 0001229  99.4477 292.1320 15.69625944 65756
1 44258U 19029Z   20212.58335648 +.00897729 +00000-0 +66247-2 0  9992
2 44258 052.9976 000.4836 0001135 093.2170 023.4186 15.70181704001779
1 44258U 19029Z   20212.91667824 +.01081885 +00000-0 +78175-2 0  9995
2 44258 052.9975 358.8297 0001183 110.8003 091.4791 15.70634005001788
1 44258U 19029Z   20213.25001157  .00898425  00000-0  63299-2 0  9990
2 44258  52.9977 357.1775 0001175  93.5230 195.0339 15.71294123 65911
1 44258U 19029Z   20213.58334491 +.00898450 +00000-0 +61841-2 0  9995
2 44258 052.9997 355.5271 0001211 090.9690 284.5832 15.71851474001772
1 44258U 19029Z   20213.91667824 +.00897614 +00000-0 +60355-2 0  9991
2 44258 052.9989 353.8683 0001186 108.3013 354.9163 15.72409247001783
1 44258U 19029Z   20214.25002315  .00899288  00000-0  59050-2 0  9996
2 44258  52.9990 352.2072 0001101 106.0127  85.6077 15.72965539 66063
1 44258U 19029Z   20214.91667824 +.00898584 +00000-0 +56265-2 0  9994
2 44258 052.9984 348.8946 0001243 105.8916 264.3431 15.74082888001773
1 44258U 19029Z   20215.25001157 +.00898850 +00000-0 +54946-2 0  9993
2 44258 052.9975 347.2328 0001144 100.0612 000.5218 15.74640847066229
1 44258U 19029Z   20215.91667824 +.00901419 +00000-0 +52486-2 0  9998
2 44258 052.9980 343.9078 0001156 093.7967 189.4943 15.75758541001788
1 44258U 19029Z   20216.25001157  .00917033  00000-0  51164-2 0  9998
2 44258  52.9981 342.2396 0001200  97.4815 278.1725 15.76317883 66389
1 44258U 19029Z   20216.58334491 +.01161679 +00000-0 +64254-2 0  9996
2 44258 052.9966 340.5717 0001359 113.1747 355.5869 15.76731321001784
1 44258U 19029Z   20216.91668981 +.01083480 +00000-0 +57755-2 0  9998
2 44258 052.9974 338.9081 0001071 099.4112 103.0957 15.77345111001784
1 44258U 19029Z   20217.25001157  .00918681  00000-0  47589-2 0  9995
2 44258  52.9977 337.2382 0001152  89.1258 207.6515 15.77998178 66543
1 44258U 19029Z   20217.58335648 +.01101291 +00000-0 +55777-2 0  9996
2 44258 052.9975 335.5665 0001190 087.0659 304.8806 15.78457825001799
1 44258U 19029Z   20217.91667824 +.01219780 +00000-0 +60854-2 0  9992
2 44258 052.9967 333.8975 0001004 091.6016 036.0512 15.78940863001783
1 44258U 19029Z   20218.25001157  .00919120  00000-0  44151-2 0  9997
2 44258  52.9967 332.2243 0001075  82.7777 141.1862 15.79681855 66698
1 44258U 19029Z   20218.58334491 +.01034164 +00000-0 +48808-2 0  9993
2 44258 052.9964 330.5226 0001000 098.6470 222.4240 15.80177232001784
1 44258U 19029Z   20218.91667824 +.01247410 +00000-0 +57577-2 0  9992
2 44258 052.9960 328.8728 0001171 078.5100 340.3898 15.80609051001781
1 44258U 19029Z   20219.25001157  .00918896  00000-0  40878-2 0  9999
2 44258  52.9960 327.1966 0001064  79.2532  77.9715 15.81368724 66855
1 44258U 19029Z   20219.58334491 +.01078392 +00000-0 +46951-2 0  9992
2 44258 052.9972 325.5152 0000986 106.1760 150.1963 15.81842123001782
1 44258U 19029Z   20219.91668981 +.00993485 +00000-0 +41658-2 0  9990
2 44258 052.9967 323.8381 0001113 073.5033 282.6915 15.82458997001774
1 44258U 19029Z   20220.25001157  .01052852  00000-0  43593-2 0  9990
2 44258  52.9985 322.1566 0001376  68.2060  28.4027 15.82982194 67013
1 44258U 19029Z   20220.58334491  .00920410  00000-0  36871-2 0  9990
2 44258  52.9989 320.4771 0001140  63.6397 134.0661 15.83621987 67061
1 44258U 19029Z   20220.91667824 +.01037006 +00000-0 +40767-2 0  9996
2 44258 052.9961 318.7885 0001079 065.6581 233.8953 15.84118510001788
1 44258U 19029Z   20221.58334491  .01123568  00000-0  41593-2 0  9998
2 44258  52.9975 315.4138 0001207  92.8152  52.4226 15.85203046 67226
